#cP2023 11 22  0  0  0.00000000      96 ORBIT IGS20 HLM  IGS
## 2289 259200.00000000   900.00000000 60270 0.0000000000000
+   32   G01G02G03G04G05G06G07G08G09G10G11G12G13G14G15G16G17
+        G18G19G20G21G22G23G24G25G26G27G28G29G30G31G32  0  0
+          0  0  0  0  0  0  0  0  0  0  0  0  0  0  0  0  0
+          0  0  0  0  0  0  0  0  0  0  0  0  0  0  0  0  0
+          0  0  0  0  0  0  0  0  0  0  0  0  0  0  0  0  0
++         2  2  2  2  2  2  2  2  2  2  2  2  2  2  2  2  2
++         2  2  2  2  2  2  2  2  2  2  2  2  2  2  2  0  0
++         0  0  0  0  0  0  0  0  0  0  0  0  0  0  0  0  0
++         0  0  0  0  0  0  0  0  0  0  0  0  0  0  0  0  0
++         0  0  0  0  0  0  0  0  0  0  0  0  0  0  0  0  0
%c G  cc GPS ccc cccc cccc cccc cccc ccccc ccccc ccccc ccccc
%c cc cc ccc ccc cccc cccc cccc cccc ccccc ccccc ccccc ccccc
%f  1.2500000  1.025000000  0.00000000000  0.000000000000000
%f  0.0000000  0.000000000  0.00000000000  0.000000000000000
%i    0    0    0    0      0      0      0      0         0
%i    0    0    0    0      0      0      0      0         0
/* RAPID ORBIT COMBINATION FROM WEIGHTED AVERAGE OF:        
/* cod emr esa gfz grg jgx jpl ngs sio usn whu              
/* REFERENCED TO IGS TIME (IGST) AND TO WEIGHTED MEAN POLE: 
/* PCV:IGS20      OL/AL:FES2014b NONE     Y  ORB:CMB CLK:CMB
*  2023 11 22 15  0  0.00000000
PG01 -13877.257008   4313.570218  21869.197070    163.261894  6  6  7  66       
PG02 -15868.965372  -1793.479407  21759.731546   -525.549271  7  6  6  88       
PG03 -22558.001625  10670.472628   8787.581725      3.175571  5  6  6 102       
PG04 -22327.713298   1418.799051 -14405.692200    219.884963  8  4  4 103       
PG05  18939.295365    446.264053 -18833.770457   -151.361422  4  5  5 124       
PG06   6212.369218  25488.305566  -3731.290929    499.032223  6  5  6  89       
PG07  -6738.341377  21054.881585 -13888.143466      6.784572  5  4  3  93       
PG08 -25672.751363  -4316.594787   6201.890436   -153.345252  7  5  4  85       
PG09 -13669.540655  10374.444931 -20376.680625      4.672030  3  4  3 102       
PG10   4330.954217 -19042.277822  18035.218536    -62.396019  4  5  6  87       
PG11  11944.027643  19011.472380 -14208.153011   -470.919789  3  5  5  82       
PG12  23225.562502  -8166.951423   9594.124329   -449.745815  6  4  5  63       
PG13  22768.524893  13835.986065  -1572.471880    598.014728  6  6  6  75       
PG14  -8139.175783  20066.526244  15284.266514    250.478597  5  7  8 107       
PG15  25877.907137   1346.966048   5831.012462     99.663542  7  6  5  79       
PG16 -15258.660732  -7230.401515 -20924.902014   -417.547757  8  7  4  82       
PG17   1129.417785  16450.715976  21230.568742    722.961563  7  6  4 116       
PG18   5891.368474 -22222.718754 -13124.010884   -486.361800  8  9  5 101       
PG19  10863.176641  18014.729959  16229.277114    402.431409  5  6  5 107       
PG20  10370.185064  11481.340932 -21547.171731    400.330402  3  3  3  93       
PG21 -16428.602301  -6223.830867  20679.403802    143.582189  6  5  6  95       
PG22  -1816.377861  17972.561730  20011.082342     79.216648  8  6  7 108       
PG23  15235.848570 -20144.703998   7916.551733    103.258683  7  9  3  92       
PG24  16072.780350    805.652143  20780.502457   -377.189288  4  5  5  99       
PG25  19665.275897 -17604.250036  -1255.558371    478.486651  7  9  6  85       
PG26  -7673.904049 -14287.996672 -21128.106916    214.828015  5  7  5 112       
PG27 -22364.631020 -13308.170173  -6585.436772    -73.448474  5  5  5  90       
PG28  -6145.586723 -25791.510422  -1622.044264    -52.070533  6  5  4  93       
PG29  14821.789613  -8369.379477 -20459.443888   -610.160539  6  6  6  96       
PG30    216.441532  25908.189614  -5047.444770   -465.515723  4  4  3  85       
PG31 -10312.711560 -22092.496579 -10217.274541   -225.979170  2  5  5  96       
PG32  -6407.820823 -17023.252888  19608.562120   -588.656111  3  4  6 101       
*  2023 11 22 15 15  0.00000000
PG01 -14330.674432   1777.304309  21957.976614    163.262032  7  6  7 102       
PG02 -16452.516267  -4055.960439  21008.786574   -525.544553  7  6  6  90       
PG03 -21790.106359   9764.617391  11367.862276      3.198756  5  6  6 110       
PG04 -23673.833002    697.758986 -12143.746323    219.894269  8  4  4  79       
PG05  17420.644086   2028.878825 -20153.689215   -151.361986  3  4  5 121       
PG06   6083.636871  25784.513447   -828.734375    499.022874  6  6  5 103       
PG07  -7316.871399  19330.304881 -15930.233392      6.775585  4  4  2  94       
PG08 -26133.403036  -4703.928906   3450.807497   -153.347096  6  5  3  66       
PG09 -15777.295662   9589.248595 -19204.606488      4.682287  3  4  3  98       
PG10   5879.933694 -20205.644945  16189.812224    -62.397560  3  6  6  94       
PG11  11966.261922  20518.630979 -11915.772723   -470.934094  3  6  5  85       
PG12  22337.792769  -7218.779129  12076.863104   -449.749503  4  4  5  63       
PG13  22390.713740  13877.611651  -4407.432139    598.018321  6  6  7  68       
PG14  -9548.321300  20923.259795  13154.091453    250.488184  5  7  7 111       
PG15  26374.093662   1760.875241   3105.186204     99.666825  7  7  5  67       
PG16 -13370.196109  -8646.541823 -21637.644886   -417.541431  8  6  5  83       
PG17  -1083.243103  15585.563222  21900.606437    722.960912  7  6  5 115       
PG18   6343.891129 -20642.977606 -15323.847732   -486.371407  8  9  5 102       
PG19   9018.686404  17289.426173  17998.187388    402.436133  5  6  5 109       
PG20   8793.752662  13365.353642 -21175.783524    400.328206  4  2  3  83       
PG21 -16976.000989  -8329.465836  19513.009489    143.581406  6  5  6  68       
PG22  -3592.021513  19130.815199  18643.840921     79.210579  8  7  7 106       
PG23  15931.832311 -20493.558822   5149.811001    103.264471  8 10  2  83       
PG24  16683.587456   3152.957088  20115.261700   -377.197148  4  5  5  99       
PG25  19825.767615 -17342.493833   1598.839668    478.488098  7  9  6  64       
PG26  -5940.235374 -15904.717014 -20485.546730    214.825611  5  7  6 113       
PG27 -21485.447361 -13212.822333  -9233.432833    -73.453161  4  5  5  98       
PG28  -5902.273503 -25866.864630   1234.736912    -52.078583  6  5  4  97       
PG29  16856.662881  -7391.178455 -19230.023659   -610.160433  6  6  6  86       
PG30   -250.928344  25229.035782  -7736.454434   -465.512063  4  5  3 100       
PG31 -10209.539940 -23131.114104  -7605.407315   -225.979607  2  6  5  94       
PG32  -4233.120238 -16384.993595  20703.219858   -588.659990  3  4  6  91       
*  2023 11 22 15 30  0.00000000
PG01 -14921.381703   -714.325038  21656.797395    163.262150  7  7  7  88       
PG02 -17125.464913  -6186.714084  19913.326516   -525.539979  7  6  6  64       
PG03 -20870.401393   8619.419268  13749.948935      3.221894  5  6  5 100       
PG04 -24801.105419    130.328002  -9674.104608    219.903527  8  3  5  89       
PG05  15901.498203   3785.532354 -21132.847662   -151.363562  2  4  5 124       
PG06   5893.803355  25765.497443   2088.181962    499.013544  6  6  5  90       
PG07  -8032.673911  17422.832392 -17683.308207      6.766800  3  4  1  96       
PG08 -26311.230888  -4990.431154    641.744393   -153.349016  6  4  3  78       
PG09 -17777.051767   8951.534743 -17705.018785      4.692525  3  4  2 101       
PG10   7204.620438 -21296.294513  14065.525284    -62.399378  2  6  6  99       
PG11  12014.516198  21756.433870  -9418.640133   -470.948498  4  6  5  77       
PG12  21293.427075  -6048.026487  14347.932150   -449.753281  3  3  5  65       
PG13  21728.190225  13812.137014  -7167.805105    598.021879  5  7  7  80       
PG14 -10726.954649  21676.896156  10795.871760    250.497799  5  7  7 108       
PG15  26581.902841   2105.967799    326.191900     99.670246  6  7  5  75       
PG16 -11511.972927 -10202.146171 -21990.553031   -417.535000  8  6  5 104       
PG17  -3389.400811  14826.033835  22207.956532    722.960567  6  6  5 104       
PG18   6934.310877 -18861.676004 -17257.587577   -486.381101  8  9  6 111       
PG19   6963.992974  16596.101305  19456.542228    402.440746  4  6  5 115       
PG20   7352.595514  15274.426685 -20439.198453    400.326891  3  2  3  85       
PG21 -17588.551138 -10260.683283  18032.945848    143.580656  6  5  6  72       
PG22  -5172.462599  20276.523930  16969.577655     79.204189  8  8  7 107       
PG23  16385.645823 -20649.126792   2293.467169    103.270313  8 10  2  94       
PG24  17371.091472   5372.747977  19094.470242   -377.204981  4  4  4  96       
PG25  19772.269621 -16857.695020   4425.148655    478.489512  6  9  6  84       
PG26  -4343.817830 -17536.124040 -19492.326638    214.823183  6  8  6 119       
PG27 -20326.225685 -13088.137523 -11727.770957    -73.457817  4  5  5  84       
PG28  -5573.039741 -25645.384276   4070.263540    -52.086561  6  5  4 105       
PG29  18793.205710  -6579.287778 -17671.878770   -610.160287  5  7  6 100       
PG30   -821.749094  24283.446903 -10289.716285   -465.508422  5  5  3  93       
PG31 -10088.585842 -23878.219269  -4860.325845   -225.980072  3  6  5 106       
PG32  -1927.075067 -15835.068390  21448.738137   -588.663819  4  5  6  96       
EOF
